ONEWEB-0555             
1 56057U 23043M   25028.81543920  .00000194  00000+0  47421-3 0  9998
2 56057  87.9143 329.2757 0002338  54.3381 305.7968 13.16595864 92593
ONEWEB-0557             
1 56058U 23043N   25028.22171675  .00000072  00000+0  15594-3 0  9999
2 56058  87.9126 329.4195 0001740  47.1387 312.9890 13.16595631 92513
ONEWEB-0558             
1 56059U 23043P   25028.92606960  .00000053  00000+0  96106-4 0  9995
2 56059  87.9335 344.4673 0002129  94.5104 265.6273 13.21828209 91625
ONEWEB-0559             
1 56060U 23043Q   25028.83934520  .00000017  00000+0  86273-5 0  9998
2 56060  87.9336 344.4781 0001599  90.9510 269.1807 13.21827253 91629
ONEWEB-0566             
1 56061U 23043R   25028.15177344  .00000092  00000+0  19218-3 0  9993
2 56061  87.9331 344.6150 0002033  99.0603 261.0761 13.21827579 91513
ONEWEB-0568             
1 56062U 23043S   25029.22709689 -.00000031  00000+0 -11384-3 0  9997
2 56062  87.9126 329.1847 0001901  72.7646 287.3693 13.16595008 93571
ONEWEB-0574             
1 56063U 23043T   25029.12951622  .00000058  00000+0  10819-3 0  9992
2 56063  87.9333 344.4113 0001983  78.9491 281.1866 13.21824943 92598
ONEWEB-0575             
1 56064U 23043U   25029.22076001 -.00000023  00000+0 -94324-4 0  9991
2 56064  87.9132 329.1968 0001283  68.7770 291.3498 13.16596307 93560
ONEWEB-0576             
1 56065U 23043V   25029.20175267  .00000079  00000+0  17282-3 0  9990
2 56065  87.9115 329.1941 0001673  67.0809 293.0498 13.16597853 93556
ONEWEB-0577             
1 56066U 23043W   25029.20808826  .00000084  00000+0  18590-3 0  9994
2 56066  87.9123 329.1931 0001323  57.2750 302.8509 13.16595623 93581
ONEWEB-0578             
1 56067U 23043X   25029.11689628  .00000011  00000+0 -52478-5 0  9998
2 56067  87.9335 344.4200 0001860  76.6055 283.5286 13.21824723 92550
ONEWEB-0579             
1 56068U 23043Y   25028.42615068 -.00000041  00000+0 -13139-3 0  9992
2 56068  87.9328 344.5471 0001619  93.6611 266.4709 13.21826961 92470
ONEWEB-0581             
1 56069U 23043Z   25028.75844565  .00000054  00000+0  10742-3 0  9994
2 56069  87.9127 329.3127 0001215  73.5395 286.5870 13.16595670 92583
ONEWEB-0609             
1 56070U 23043AA  25029.15184605 -.00000020  00000+0 -86714-4 0  9991
2 56070  87.9098 359.5799 0001903  84.7769 275.3578 13.15549446 91078
ONEWEB-0613             
1 56071U 23043AB  25029.14709224  .00000084  00000+0  18829-3 0  9990
2 56071  87.9101 359.5858 0001789  92.8068 267.3267 13.15551600 91075
ONEWEB-0630             
1 56072U 23043AC  25029.14232833  .00000095  00000+0  21794-3 0  9995
2 56072  87.9098 359.5696 0001888  93.7093 266.4254 13.15547782 91060
ONEWEB-0632             
1 56073U 23043AD  25029.13757862  .00000113  00000+0  26628-3 0  9991
2 56073  87.9096 359.5896 0001502  84.8220 275.3082 13.15549981 91068
ONEWEB-0633             
1 56074U 23043AE  25028.97913458  .00000127  00000+0  30245-3 0  9993
2 56074  87.9096 359.5945 0002104  95.8561 264.2810 13.15550949 91021
ONEWEB-0634             
1 56075U 23043AF  25029.19305087  .00000058  00000+0  11913-3 0  9996
2 56075  87.9101 359.5779 0002193  82.7289 277.4091 13.15547807 91042
ONEWEB-0635             
1 56076U 23043AG  25029.18828711 -.00000068  00000+0 -21527-3 0  9995
2 56076  87.9071 359.6027 0001419  81.5183 278.6108 13.15549353 91079
ONEWEB-0636             
1 56077U 23043AH  25028.64796531 -.00000088  00000+0 -26760-3 0  9996
2 56077  87.9096 359.7061 0001555  81.5901 278.5405 13.15549203 90077
ONEWEB-0637             
1 56078U 23043AJ  25028.94586940 -.00000043  00000+0 -14943-3 0  9992
2 56078  87.9098 359.6263 0001712  73.4776 286.6542 13.15545693 91047
ONEWEB-0647             
1 56079U 23043AK  25028.86504637 -.00000084  00000+0 -25589-3 0  9990
2 56079  87.9096 359.6554 0001646  87.7428 272.3891 13.15546667 90115
ONEWEB-0651             
1 56080U 23043AL  25029.16451918 -.00000036  00000+0 -13048-3 0  9993
2 56080  87.9100 359.5795 0001574  74.2439 285.8864 13.15549344 90150
ONEWEB-0718             
1 56081U 23043AM  25029.15976313 -.00000121  00000+0 -35468-3 0  9999
2 56081  87.9099 359.5651 0002276  79.6914 280.4473 13.15545458 91077
ONEWEB-0561             
1 56710U 23068A   25028.65753576  .00000075  00000+0  15161-3 0  9997
2 56710  87.9257  14.8611 0001182  88.0146 272.1123 13.20774224 82908
ONEWEB-0668             
1 56711U 23068B   25028.76081685  .00000113  00000+0  26144-3 0  9991
2 56711  87.9118 329.2762 0002322  72.0774 288.0610 13.16597062 85405
ONEWEB-0676             
1 56712U 23068C   25029.12101146  .00000148  00000+0  35258-3 0  9992
2 56712  87.9123 329.2271 0001194  77.1012 283.0252 13.16595869 86078
ONEWEB-0677             
1 56713U 23068D   25028.64650556  .00000025  00000+0  28447-4 0  9990
2 56713  87.9252  14.8339 0001683  77.6714 282.4608 13.20770417 83200
ONEWEB-0678             
1 56714U 23068E   25028.67173634  .00000170  00000+0  41780-3 0  9996
2 56714  87.9102 359.6307 0001732  94.7657 265.3671 13.15549085 82951
ONEWEB-0679             
1 56715U 23068F   25028.78615127 -.00000042  00000+0 -14297-3 0  9990
2 56715  87.9117 329.2902 0001798  58.8943 301.2364 13.16594915 85352
ONEWEB-0680             
1 56716U 23068G   25028.42931602  .00000040  00000+0  66553-4 0  9990
2 56716  87.9312 344.5797 0002378  68.9607 291.1782 13.21823977 84412
ONEWEB-0681             
1 56717U 23068H   25028.81806429  .00000056  00000+0  10336-3 0  9996
2 56717  87.9331 344.5007 0001071  51.2483 308.8747 13.21825830 84455
ONEWEB-0682             
1 56718U 23068J   25028.92604263 -.00000302  00000+0 -83519-3 0  9990
2 56718  87.9097 359.6150 0002140  71.0128 289.1234 13.15548545 83151
ONEWEB-0683             
1 56719U 23068K   25029.17561348 -.00000143  00000+0 -41489-3 0  9998
2 56719  87.9096 359.5369 0002022  75.9989 284.1366 13.15548827 83850
ONEWEB-0684             
1 56720U 23068L   25029.18353764 -.00000061  00000+0 -19492-3 0  9990
2 56720  87.9071 359.5884 0002694 115.4348 244.7061 13.15548026 83687
ONEWEB-0686             
1 56721U 23068M   25028.77586276  .00000004  00000+0 -22101-4 0  9999
2 56721  87.9120 329.3290 0002114  79.8441 280.2928 13.16594850 85342
ONEWEB-0694             
1 56722U 23068N   25029.12259436 -.00000020  00000+0 -85315-4 0  9990
2 56722  87.9087 329.1816 0001659  79.1533 280.9785 13.16595219 86142
ONEWEB-0696             
1 56723U 23068P   25029.14077255  .00000165  00000+0  40325-3 0  9999
2 56723  87.9100 359.5958 0001762  93.6602 266.4730 13.15549980 83796
ONEWEB-0703             
1 56724U 23068Q   25029.15026320  .00000043  00000+0  80582-4 0  9993
2 56724  87.9101 359.6135 0001261 124.6531 235.4718 13.15548464 83682
ONEWEB-0721             
1 56725U 23068R   25029.25001157  .00000015  00000+0  00000+0 0  9997
2 56725  86.6722 246.2532 0007401 219.7338  24.1433 13.48755336 92000
ONEWEB-0015             
1 61594U 24188A   25029.25001157 -.00799110  00000+0 -21320+0 0  9992
2 61594  86.7801 127.5467 0004185 198.5281 172.6628 14.51559496 15985
ONEWEB-0687             
1 61595U 24188B   25029.19082419  .00009349  00000+0  11343-2 0  9999
2 61595  86.5802 127.1741 0003359 193.8796 166.2335 14.83471400 16211
ONEWEB-0688             
1 61596U 24188C   25028.24978287  .00005271  00000+0  63871-3 0  9996
2 61596  86.5801 127.5978 0002797 198.7691 161.3430 14.83456873 17793
ONEWEB-0689             
1 61597U 24188D   25028.91667824 -.00873701  00000+0 -26202+0 0  9999
2 61597  86.8168 127.8656 0001173 168.1932  15.8949 14.45749155  5842
ONEWEB-0690             
1 61598U 24188E   25029.25001157 -.00506009  00000+0 -12676+0 0  9993
2 61598  86.8319 127.7750 0005234 196.3103  81.2679 14.54132101 16015
ONEWEB-0691             
1 61599U 24188F   25029.25001157 -.00697289  00000+0 -20165+0 0  9997
2 61599  86.8230 127.8000 0004042 198.7491  82.5994 14.47335993 16176
ONEWEB-0692             
1 61600U 24188G   25029.25001157 -.00724370  00000+0 -21510+0 0  9997
2 61600  86.8292 127.7859 0000890 208.0159 271.6791 14.46159959 16116
ONEWEB-0693             
1 61601U 24188H   25029.19454675  .00006283  00000+0  76172-3 0  9990
2 61601  86.5713 127.0969 0001357 168.1686 191.9569 14.83467221 16142
ONEWEB-0695             
1 61602U 24188J   25029.25001157 -.00698736  00000+0 -20743+0 0  9992
2 61602  86.8223 127.7886 0001444 159.0888 332.6210 14.46073501 16147
ONEWEB-0697             
1 61603U 24188K   25029.25001157 -.00732198  00000+0 -22276+0 0  9997
2 61603  86.8211 127.7740 0000167  32.8085 350.0777 14.45007427 16169
ONEWEB-0698             
1 61604U 24188L   25029.25001157 -.00730814  00000+0 -21757+0 0  9994
2 61604  86.8259 127.7941 0003710 213.3845 346.5617 14.46056310 15935
ONEWEB-0699             
1 61605U 24188M   25029.25001157  .00000013  00000+0  00000+0 0  9992
2 61605  87.9290 136.6780 0001152 286.6714 272.3217 13.23997447 15413
ONEWEB-0700             
1 61606U 24188N   25029.25001157  .00000013  00000+0  00000+0 0  9993
2 61606  87.9303 136.6889 0000758 263.7160 156.5143 13.24265897 15476
ONEWEB-0701             
1 61607U 24188P   25029.25001157  .00000013  00000+0  00000+0 0  9994
2 61607  87.9360 136.6807 0002654 250.8968 201.0242 13.23629254 15612
ONEWEB-0702             
1 61608U 24188Q   25029.25001157 -.00723723  00000+0 -21129+0 0  9992
2 61608  86.8273 127.8137 0004068 199.5296  20.0991 14.46978309 15979
ONEWEB-0704             
1 61609U 24188R   25029.25001157  .00031091  00000+0  73404-1 0  9996
2 61609  87.8661 136.6698 0001287  75.3740 142.4429 13.23264526 15414
ONEWEB-0705             
1 61610U 24188S   25029.25001157  .00000013  00000+0  00000+0 0  9998
2 61610  87.9356 136.6862 0001444 308.7099 204.7542 13.23663037 15582
ONEWEB-0706             
1 61611U 24188T   25029.25001157  .00000013  00000+0  00000+0 0  9999
2 61611  87.9037 136.6631 0002493 257.4029 126.8651 13.26029528 15401
